ONEWEB-0415             
1 51624U 22012C   23059.54761126 -.00000585  00000+0 -17132-2 0  9991
2 51624  87.8756 275.6196 0001641 107.0606 253.0701 13.10372729 51525
ONEWEB-0415             
1 51624U 22012C   23059.62396856 -.00000572  00000+0 -16753-2 0  9998
2 51624  87.8756 275.6043 0001640 107.0824 253.0483 13.10372918 52817
ONEWEB-0415             
1 51624U 22012C   23059.85304103 -.00000561  00000+0 -16427-2 0  9993
2 51624  87.8756 275.5586 0001648 107.1454 252.9854 13.10372749 51569
ONEWEB-0415             
1 51624U 22012C   23060.84568983 -.00000545  00000+0 -15982-2 0  9999
2 51624  87.8758 275.3615 0001714 105.8585 254.2731 13.10371694 51697
ONEWEB-0415             
1 51624U 22012C   23060.84568983 -.00000545  00000+0 -15982-2 0  9999
2 51624  87.8758 275.3615 0001714 105.8585 254.2731 13.10371694 52979
ONEWEB-0415             
1 51624U 22012C   23061.60926583 -.00000478  00000+0 -14060-2 0  9999
2 51624  87.8756 275.2085 0001830 106.2403 253.8926 13.10371473 51795
ONEWEB-0415             
1 51624U 22012C   23062.14376808 -.00001109  00000+0 -32142-2 0  9991
2 51624  87.8753 275.1018 0001605 110.1459 249.9841 13.10375403 51869
ONEWEB-0415             
1 51624U 22012C   23062.14376808 -.00001109  00000+0 -32142-2 0  9991
2 51624  87.8753 275.1018 0001605 110.1459 249.9841 13.10375403 53142
